MEAN_MOTION;ECCENTRICITY;INCLINATION;RA_OF_ASC_NODE;ARG_OF_PERICENTER;MEAN_ANOMALY;BSTAR;MEAN_MOTION_DOT;MEAN_MOTION_DDOT;TYPE
14.34216011;0.0002544;86.3943;116.061;87.7436;272.4051;1.8867E-5;7.3E-7;0;Iridium
14.34216158;0.000253;86.3941;115.6523;87.1443;273.0042;2.2519E-5;8.3E-7;0;Iridium
14.34216272;0.0002521;86.3939;115.2438;86.6706;273.4778;2.4504E-5;8.8E-7;0;Iridium
14.34216276;0.0002519;86.3939;115.2146;86.6055;273.5429;2.4187E-5;8.8E-7;0;Iridium
14.3421644;0.0002507;86.3938;114.8353;85.7143;274.4339;2.8549E-5;1.0E-6;0;Iridium
14.34216536;0.0002495;86.3936;114.4267;85.3919;274.7562;2.7119E-5;9.6E-7;0;Iridium
14.34216709;0.0002486;86.3936;114.0182;84.939;275.209;2.7985E-5;9.8E-7;0;Iridium
14.34216746;0.0002486;86.3935;113.9889;84.9487;275.1993;2.8416E-5;9.9E-7;0;Iridium
14.3421667;0.0002477;86.3934;113.7847;84.6621;275.4858;2.266E-5;8.3E-7;0;Iridium
14.34216808;0.0002469;86.3934;113.5511;84.4999;275.6479;2.3836E-5;8.7E-7;0;Iridium
14.34216921;0.0002459;86.3933;113.3175;84.0921;276.0555;2.3806E-5;8.6E-7;0;Iridium
14.34216955;0.0002454;86.3933;113.1717;83.9796;276.1679;2.3337E-5;8.5E-7;0;Iridium
14.3421696;0.0002452;86.3933;113.1425;83.9334;276.2141;2.2677E-5;8.3E-7;0;Iridium
14.3421719;0.0002429;86.3931;112.5878;83.2538;276.8934;2.2259E-5;8.2E-7;0;Iridium
14.34217296;0.0002415;86.393;112.2959;83.2169;276.9301;2.1082E-5;7.9E-7;0;Iridium
14.34217307;0.0002416;86.393;112.2084;83.1731;276.974;2.0581E-5;7.7E-7;0;Iridium
14.34217416;0.0002398;86.3929;111.9164;83.1457;277.0012;2.0896E-5;7.8E-7;0;Iridium
14.34217478;0.0002393;86.3929;111.7413;83.1533;276.9935;2.2309E-5;8.2E-7;0;Iridium
14.34217466;0.0002381;86.3928;111.4786;82.9925;277.1542;1.4437E-5;6.0E-7;0;Iridium
14.34217534;0.0002377;86.3928;111.3326;82.8405;277.3061;1.811E-5;7.1E-7;0;Iridium
14.34217619;0.0002363;86.3928;111.0699;82.7221;277.4243;1.9668E-5;7.5E-7;0;Iridium
14.3421762;0.0002363;86.3927;111.0407;82.6825;277.4639;1.9175E-5;7.3E-7;0;Iridium
14.34217682;0.0002357;86.3927;110.8947;82.5807;277.5657;2.1744E-5;8.1E-7;0;Iridium
14.34217741;0.0002344;86.3927;110.6612;82.4687;277.6775;2.1803E-5;8.1E-7;0;Iridium
14.34217749;0.0002342;86.3926;110.632;82.453;277.6932;2.1761E-5;8.1E-7;0;Iridium
14.34217819;0.0002338;86.3926;110.486;82.361;277.7852;2.4822E-5;8.9E-7;0;Iridium
14.3421786;0.0002324;86.3926;110.2525;82.2185;277.9275;2.3764E-5;8.6E-7;0;Iridium
14.34217868;0.0002323;86.3926;110.2233;82.1862;277.9598;2.3642E-5;8.6E-7;0;Iridium
14.34217897;0.0002319;86.3925;110.0773;82.1538;277.9921;2.3853E-5;8.7E-7;0;Iridium
14.34217946;0.0002305;86.3925;109.8146;81.9956;278.1501;2.2978E-5;8.4E-7;0;Iridium
14.34217947;0.0002304;86.3925;109.7854;81.9693;278.1764;2.2636E-5;8.3E-7;0;Iridium
14.3421801;0.0002283;86.3924;109.3766;81.7136;278.4319;2.0478E-5;7.7E-7;0;Iridium
14.34218054;0.0002277;86.3923;109.2307;81.6789;278.4664;2.1348E-5;8.0E-7;0;Iridium
14.34218125;0.0002263;86.3923;108.9971;81.664;278.4812;2.2311E-5;8.2E-7;0;Iridium
14.34218199;0.0002255;86.3922;108.822;81.5359;278.6092;2.3576E-5;8.6E-7;0;Iridium
14.34218306;0.0002242;86.3922;108.5592;81.4;278.7449;2.5134E-5;9.0E-7;0;Iridium
14.34218361;0.0002237;86.3922;108.384;81.258;278.8869;2.4971E-5;9.0E-7;0;Iridium
14.3421845;0.0002226;86.3922;108.1797;81.2379;278.9069;2.64E-5;9.4E-7;0;Iridium
14.34218499;0.0002217;86.3922;107.9753;81.1815;278.9632;2.4342E-5;8.8E-7;0;Iridium
14.34218539;0.0002204;86.3922;107.7418;81.1355;279.009;2.1266E-5;7.9E-7;0;Iridium
14.34218583;0.0002198;86.3922;107.5666;81.0864;279.0581;2.044E-5;7.7E-7;0;Iridium
14.34218615;0.0002182;86.3922;107.3038;81.0933;279.051;1.6188E-5;6.5E-7;0;Iridium
14.34218652;0.0002178;86.3922;107.1287;81.0389;279.1053;1.5361E-5;6.3E-7;0;Iridium
14.34218673;0.0002165;86.3922;106.8951;81.0335;279.1106;1.2588E-5;5.5E-7;0;Iridium
14.34218708;0.0002159;86.3922;106.7199;80.9984;279.1456;1.2124E-5;5.4E-7;0;Iridium
14.34218721;0.0002156;86.3922;106.6615;81.015;279.129;1.1426E-5;5.2E-7;0;Iridium
14.342188;0.0002133;86.3922;106.2236;81.0744;279.0693;1.0779E-5;5.0E-7;0;Iridium
14.34218868;0.0002122;86.3922;106.0484;81.1677;278.9759;1.2665E-5;5.5E-7;0;Iridium
14.34218918;0.0002116;86.3922;105.8733;81.2374;278.9061;1.3694E-5;5.8E-7;0;Iridium
14.34218953;0.0002106;86.3922;105.6689;81.3354;278.808;1.3845E-5;5.9E-7;0;Iridium
14.34219034;0.0002098;86.3922;105.4645;81.2438;278.8995;1.5884E-5;6.4E-7;0;Iridium
14.34219104;0.0002085;86.3922;105.2309;81.2378;278.9054;1.7282E-5;6.8E-7;0;Iridium
14.34219104;0.0002085;86.3922;105.2309;81.2378;278.9054;1.7282E-5;6.8E-7;0;Iridium
14.34219189;0.0002066;86.3922;104.793;81.4696;278.6734;1.842E-5;7.1E-7;0;Iridium
14.34219225;0.0002058;86.3922;104.6178;81.5569;278.586;1.8894E-5;7.3E-7;0;Iridium
14.34219275;0.0002046;86.3922;104.3842;81.746;278.3968;1.9738E-5;7.5E-7;0;Iridium
14.34219328;0.0002042;86.3922;104.2091;81.913;278.2298;2.0791E-5;7.8E-7;0;Iridium
14.34219383;0.0002028;86.3923;103.9755;81.8525;278.2901;2.1497E-5;8.0E-7;0;Iridium
14.34219407;0.0002027;86.3923;103.8004;82.3278;277.8148;2.1219E-5;7.9E-7;0;Iridium
14.34219474;0.0002015;86.3923;103.5377;82.442;277.7004;2.1158E-5;7.9E-7;0;Iridium
14.34219541;0.0002008;86.3923;103.3625;82.5116;277.6308;2.1958E-5;8.1E-7;0;Iridium
14.34219625;0.0001997;86.3924;103.129;82.5815;277.5608;2.2772E-5;8.4E-7;0;Iridium
14.342197;0.0001986;86.3924;102.9538;82.4328;277.7093;2.3629E-5;8.6E-7;0;Iridium
14.34219769;0.0001977;86.3925;102.7203;82.5259;277.6161;2.3044E-5;8.4E-7;0;Iridium
14.34219829;0.0001972;86.3925;102.5452;82.6322;277.5098;2.284E-5;8.4E-7;0;Iridium
14.34219889;0.0001966;86.3925;102.3408;82.9176;277.2243;2.2195E-5;8.2E-7;0;Iridium
14.34216041;0.0001949;86.3925;101.8735;84.0291;276.1126;1.8971E-5;7.3E-7;0;Iridium
14.34216191;0.0001933;86.3927;101.4648;84.3102;275.8314;2.1376E-5;8.0E-7;0;Iridium
14.34216367;0.0001929;86.3927;101.2897;84.4917;275.6498;3.3433E-5;1.13E-6;0;Iridium
14.34216292;0.0001922;86.3927;101.0563;84.0912;276.0503;1.4763E-5;6.1E-7;0;Iridium
14.34216338;0.0001924;86.3928;100.852;84.3439;275.7976;1.356E-5;5.8E-7;0;Iridium
14.34216405;0.0001918;86.3929;100.6185;84.8624;275.2791;1.5032E-5;6.2E-7;0;Iridium
14.34216405;0.0001918;86.3929;100.6185;84.8624;275.2791;1.5032E-5;6.2E-7;0;Iridium
14.34216463;0.0001916;86.3929;100.4434;85.0989;275.0425;1.5979E-5;6.5E-7;0;Iridium
14.34216517;0.0001909;86.393;100.2098;85.4964;274.645;1.6281E-5;6.5E-7;0;Iridium
14.34216548;0.0001908;86.393;100.0346;85.5117;274.6297;1.6094E-5;6.5E-7;0;Iridium
14.34216609;0.0001899;86.3931;99.8012;85.5528;274.5884;1.7231E-5;6.8E-7;0;Iridium
14.34216609;0.0001899;86.3931;99.8012;85.5528;274.5884;1.7231E-5;6.8E-7;0;Iridium
14.34216684;0.0001898;86.3931;99.5969;85.6507;274.4906;1.8782E-5;7.2E-7;0;Iridium
14.34216733;0.0001893;86.3932;99.3926;85.9135;274.2277;2.0197E-5;7.6E-7;0;Iridium
14.34216793;0.000189;86.3932;99.1591;86.1159;274.0253;2.0748E-5;7.8E-7;0;Iridium
14.34216869;0.0001888;86.3933;98.9548;86.5602;273.581;2.2749E-5;8.3E-7;0;Iridium
14.34216932;0.0001885;86.3933;98.7797;86.697;273.4441;2.4154E-5;8.7E-7;0;Iridium
14.34217047;0.0001882;86.3934;98.5462;87.25;272.8911;2.6721E-5;9.5E-7;0;Iridium
14.34217126;0.0001882;86.3934;98.3419;87.4273;272.7138;2.7499E-5;9.7E-7;0;Iridium
14.34217268;0.0001886;86.3935;98.1085;87.8575;272.2837;3.0772E-5;1.06E-6;0;Iridium
14.34217365;0.0001885;86.3935;97.9334;87.8673;272.2738;3.2154E-5;1.1E-6;0;Iridium
14.34217418;0.0001884;86.3936;97.6999;88.1953;271.9459;3.0714E-5;1.06E-6;0;Iridium
14.34217508;0.0001887;86.3936;97.5248;88.4682;271.673;3.1661E-5;1.08E-6;0;Iridium
14.34217554;0.0001886;86.3937;97.2914;88.8946;271.2466;2.9166E-5;1.01E-6;0;Iridium
14.34217608;0.0001889;86.3938;97.0871;89.2219;270.9193;2.7261E-5;9.6E-7;0;Iridium
14.34217643;0.0001885;86.3938;96.8829;89.4725;270.6687;2.5107E-5;9.0E-7;0;Iridium
14.3421769;0.000189;86.3939;96.6786;89.6873;270.454;2.3065E-5;8.4E-7;0;Iridium
14.34217687;0.0001891;86.394;96.4743;89.9865;270.1548;1.9215E-5;7.4E-7;0;Iridium
14.3421774;0.0001891;86.394;96.27;90.0355;270.1057;1.7774E-5;7.0E-7;0;Iridium
14.34217826;0.0001896;86.3941;96.0366;90.3822;269.7591;1.7524E-5;6.9E-7;0;Iridium
14.34217873;0.0001897;86.3942;95.8323;90.5788;269.5625;1.6257E-5;6.5E-7;0;Iridium
14.34217985;0.00019;86.3943;95.6281;90.9648;269.1765;1.8317E-5;7.1E-7;0;Iridium
14.34218055;0.0001908;86.3943;95.4238;91.2896;268.8518;1.8264E-5;7.1E-7;0;Iridium
14.34218114;0.0001908;86.3944;95.2195;91.5515;268.5899;1.8458E-5;7.1E-7;0;Iridium
14.34218114;0.0001908;86.3944;95.2195;91.5515;268.5899;1.8458E-5;7.1E-7;0;Iridium
14.34218175;0.000192;86.3945;95.0153;91.7537;268.3879;1.8265E-5;7.1E-7;0;Iridium
14.34218211;0.0001925;86.3946;94.8111;91.9694;268.1722;1.759E-5;6.9E-7;0;Iridium
14.34218257;0.0001935;86.3946;94.5777;92.2226;267.9191;1.6801E-5;6.7E-7;0;Iridium
14.34218281;0.0001936;86.3947;94.3734;92.2396;267.9021;1.597E-5;6.5E-7;0;Iridium
14.34218281;0.0001936;86.3947;94.3734;92.2396;267.9021;1.597E-5;6.5E-7;0;Iridium
14.34218311;0.0001941;86.3947;94.1692;92.4375;267.7043;1.5273E-5;6.3E-7;0;Iridium
14.34218375;0.0001943;86.3948;93.965;92.6731;267.4687;1.6963E-5;6.7E-7;0;Iridium
14.34218401;0.0001951;86.3948;93.7607;92.8608;267.2811;1.6255E-5;6.5E-7;0;Iridium
14.34218562;0.0001964;86.395;93.2939;93.1509;266.9912;2.0684E-5;7.8E-7;0;Iridium
14.34218635;0.0001968;86.395;93.1189;93.2827;266.8594;2.2415E-5;8.3E-7;0;Iridium
14.34218803;0.0001978;86.3952;92.6814;93.5631;266.5791;2.5855E-5;9.2E-7;0;Iridium
14.34218857;0.0001985;86.3952;92.5063;93.6902;266.452;2.5841E-5;9.2E-7;0;Iridium
14.34218948;0.0002;86.3953;92.2729;94.1564;265.986;2.7448E-5;9.7E-7;0;Iridium
14.34219043;0.0002009;86.3954;92.0979;94.1439;265.9987;2.9065E-5;1.01E-6;0;Iridium
14.3421908;0.0002022;86.3955;91.8646;94.2444;265.8983;2.7162E-5;9.6E-7;0;Iridium
14.34219108;0.0002032;86.3955;91.6604;94.3916;265.7511;2.394E-5;8.7E-7;0;Iridium
14.34215367;0.0002073;86.3956;91.4271;94.3905;265.7528;3.3103E-5;1.12E-6;0;Iridium
14.34215689;0.0002058;86.3957;91.2521;94.342;265.8011;3.2142E-5;1.1E-6;0;Iridium
14.34215738;0.0002057;86.3957;91.2229;94.2937;265.8493;3.1794E-5;1.09E-6;0;Iridium
